CCSDS_OMM_VERS,COMMENT,CREATION_DATE,ORIGINATOR,OBJECT_NAME,OBJECT_ID,CENTER_NAME,REF_FRAME,TIME_SYSTEM,MEAN_ELEMENT_THEORY,EPOCH,MEAN_MOTION,ECCENTRICITY,INCLINATION,RA_OF_ASC_NODE,ARG_OF_PERICENTER,MEAN_ANOMALY,EPHEMERIS_TYPE,CLASSIFICATION_TYPE,NORAD_CAT_ID,ELEMENT_SET_NO,REV_AT_EPOCH,BSTAR,MEAN_MOTION_DOT,MEAN_MOTION_DDOT,SEMIMAJOR_AXIS,PERIOD,APOAPSIS,PERIAPSIS,OBJECT_TYPE,RCS_SIZE,COUNTRY_CODE,LAUNCH_DATE,SITE,DECAY_DATE,FILE,GP_ID,TLE_LINE0,TLE_LINE1,TLE_LINE2
"2.0","GENERATED VIA SPACE-TRACK.ORG API","2023-01-01T17:55:23","18 SPCS","GALILEO 13 (26A)","2016-030B","EARTH","TEME","UTC","SGP4","2023-01-01T04:05:27.305952","1.70474518","0.00030400","55.6447","256.4531","329.2378","30.8113","0","U","41550","999","4113","0.00000000000000","0.00000001","0.0000000000000","29600.260","844.701","23231.124","23213.127","PAYLOAD","LARGE","ESA","2016-05-24","FRGUI","","3728759","221926831","0 GALILEO 13 (26A)","1 41550U 16030B   23001.17045493  .00000001  00000-0  00000-0 0  9995","2 41550  55.6447 256.4531 0003040 329.2378  30.8113  1.70474518 41137"
"2.0","GENERATED VIA SPACE-TRACK.ORG API","2023-01-03T06:56:14","18 SPCS","FREGAT R/B","2016-030C","EARTH","TEME","UTC","SGP4","2023-01-02T18:59:04.073568","1.67597980","0.00189400","55.5801","258.6420","229.2049","130.7028","0","U","41551","999","4045","0.00000000000000","0.00000007","0.0000000000000","29937.991","859.199","23616.559","23503.154","ROCKET BODY","LARGE","CIS","2016-05-24","FRGUI","","3729986","222069234","0 FREGAT R/B","1 41551U 16030C   23002.79101937  .00000007  00000-0  00000+0 0  9996","2 41551  55.5801 258.6420 0018940 229.2049 130.7028  1.67597980 40455"
"2.0","GENERATED VIA SPACE-TRACK.ORG API","2023-01-03T02:40:54","18 SPCS","FREGAT R/B","2016-030C","EARTH","TEME","UTC","SGP4","2023-01-01T14:20:41.901216","1.67597948","0.00189410","55.5809","258.6738","229.2524","130.6491","0","U","41551","999","4046","0.00000000000000","-0.00000002","0.0000000000000","29937.995","859.199","23616.565","23503.154","ROCKET BODY","LARGE","CIS","2016-05-24","FRGUI","","3729873","222058785","0 FREGAT R/B","1 41551U 16030C   23001.59770719 -.00000002  00000-0  00000-0 0  9990","2 41551  55.5809 258.6738 0018941 229.2524 130.6491  1.67597948 40462"
"2.0","GENERATED VIA SPACE-TRACK.ORG API","2023-01-04T03:14:03","18 SPCS","FREGAT R/B","2016-030C","EARTH","TEME","UTC","SGP4","2023-01-02T18:59:04.073568","1.67597980","0.00189400","55.5801","258.6420","229.2049","130.7028","0","U","41551","999","4048","0.00000000000000","0.00000007","0.0000000000000","29937.991","859.199","23616.559","23503.154","ROCKET BODY","LARGE","CIS","2016-05-24","FRGUI","","3730926","222107591","0 FREGAT R/B","1 41551U 16030C   23002.79101937  .00000007  00000-0  00000-0 0  9997","2 41551  55.5801 258.6420 0018940 229.2049 130.7028  1.67597980 40488"
"2.0","GENERATED VIA SPACE-TRACK.ORG API","2023-01-01T17:55:23","18 SPCS","COSMOS 2516 (GLONASS)","2016-032A","EARTH","TEME","UTC","SGP4","2023-01-01T03:45:09.485856","2.13106424","0.00139740","63.8874","234.5868","212.9646","147.0256","0","U","41554","999","5131","0.00000000000000","0.00000055","0.0000000000000","25507.671","675.719","19165.181","19093.892","PAYLOAD","LARGE","CIS","2016-05-29","PKMTR","","3728759","221926817","0 COSMOS 2516 (GLONASS)","1 41554U 16032A   23001.15635979  .00000055  00000-0  00000-0 0  9992","2 41554  63.8874 234.5868 0013974 212.9646 147.0256  2.13106424 51315"
"2.0","GENERATED VIA SPACE-TRACK.ORG API","2023-01-01T17:55:23","18 SPCS","FREGAT R/B","2016-032B","EARTH","TEME","UTC","SGP4","2023-01-01T00:43:23.505888","2.08091588","0.00970100","63.7745","238.5715","120.5833","240.4528","0","U","41555","999","5011","0.00000000000000","0.00000044","0.0000000000000","25915.852","692.003","19789.127","19286.307","ROCKET BODY","LARGE","CIS","2016-05-29","PKMTR","","3728759","221926331","0 FREGAT R/B","1 41555U 16032B   23001.03013317  .00000044  00000-0  00000-0 0  9994","2 41555  63.7745 238.5715 0097010 120.5833 240.4528  2.08091588 50117"
"2.0","GENERATED VIA SPACE-TRACK.ORG API","2023-01-02T17:42:09","18 SPCS","FREGAT R/B","2016-032B","EARTH","TEME","UTC","SGP4","2023-01-01T23:47:24.137376","2.08091602","0.00970030","63.7744","238.5397","120.5829","240.4565","0","U","41555","999","5013","0.00000000000000","0.00000057","0.0000000000000","25915.851","692.003","19789.107","19286.324","ROCKET BODY","LARGE","CIS","2016-05-29","PKMTR","","3729583","222026494","0 FREGAT R/B","1 41555U 16032B   23001.99125159  .00000057  00000-0  00000-0 0  9991","2 41555  63.7744 238.5397 0097003 120.5829 240.4565  2.08091602 50139"
"2.0","GENERATED VIA SPACE-TRACK.ORG API","2023-01-01T16:46:14","18 SPCS","CZ-3B R/B","2016-037B","EARTH","TEME","UTC","SGP4","2023-01-01T05:59:13.917696","3.32605052","0.65231970","19.5940","8.7667","213.4302","79.4065","0","U","41587","999","6601","0.00136680000000","0.00020720","0.0000000000000","18957.568","432.946","24945.827","213.038","ROCKET BODY","LARGE","PRC","2016-06-12","XSC","","3728696","221908191","0 CZ-3B R/B","1 41587U 16037B   23001.24946664  .00020720  00000-0  13668-2 0  9996","2 41587  19.5940   8.7667 6523197 213.4302  79.4065  3.32605052 66017"
"2.0","GENERATED VIA SPACE-TRACK.ORG API","2023-01-02T17:42:09","18 SPCS","CZ-3B R/B","2016-037B","EARTH","TEME","UTC","SGP4","2023-01-02T10:47:30.689664","3.32652714","0.65227450","19.5945","8.0133","214.8056","76.5902","0","U","41587","999","6607","0.00130140000000","0.00019673","0.0000000000000","18955.757","432.884","24941.979","213.265","ROCKET BODY","LARGE","PRC","2016-06-12","XSC","","3729583","222024994","0 CZ-3B R/B","1 41587U 16037B   23002.44966076  .00019673  00000-0  13014-2 0  9998","2 41587  19.5945   8.0133 6522745 214.8056  76.5902  3.32652714 66073"
"2.0","GENERATED VIA SPACE-TRACK.ORG API","2023-01-02T02:38:49","18 SPCS","CZ-3B R/B","2016-037B","EARTH","TEME","UTC","SGP4","2023-01-01T20:23:23.122752","3.32628597","0.65230070","19.5941","8.3901","214.1177","77.9841","0","U","41587","999","6605","0.00124800000000","0.00018914","0.0000000000000","18956.673","432.915","24943.989","213.087","ROCKET BODY","LARGE","PRC","2016-06-12","XSC","","3728952","221985194","0 CZ-3B R/B","1 41587U 16037B   23001.84957318  .00018914  00000-0  12480-2 0  9993","2 41587  19.5941   8.3901 6523007 214.1177  77.9841  3.32628597 66051"
"2.0","GENERATED VIA SPACE-TRACK.ORG API","2023-01-01T09:56:13","18 SPCS","CZ-3B R/B","2016-037B","EARTH","TEME","UTC","SGP4","2023-01-01T05:59:13.883136","3.32605158","0.65232260","19.5938","8.7665","213.4304","79.4062","0","U","41587","999","6601","0.00141990000000","0.00021563","0.0000000000000","18957.564","432.946","24945.876","212.981","ROCKET BODY","LARGE","PRC","2016-06-12","XSC","","3728419","221901476","0 CZ-3B R/B","1 41587U 16037B   23001.24946624  .00021563  00000-0  14199-2 0  9998","2 41587  19.5938   8.7665 6523226 213.4304  79.4062  3.32605158 66011"
"2.0","GENERATED VIA SPACE-TRACK.ORG API","2023-01-01T17:55:23","18 SPCS","CZ-3B R/B","2016-037B","EARTH","TEME","UTC","SGP4","2023-01-01T05:59:13.917696","3.32605052","0.65231970","19.5940","8.7667","213.4302","79.4065","0","U","41587","999","6603","0.00136680000000","0.00020720","0.0000000000000","18957.568","432.946","24945.827","213.038","ROCKET BODY","LARGE","PRC","2016-06-12","XSC","","3728759","221927334","0 CZ-3B R/B","1 41587U 16037B   23001.24946664  .00020720  00000-0  13668-2 0  9996","2 41587  19.5940   8.7667 6523197 213.4302  79.4065  3.32605052 66039"
"2.0","GENERATED VIA SPACE-TRACK.ORG API","2023-01-02T15:56:14","18 SPCS","CZ-3B R/B","2016-037B","EARTH","TEME","UTC","SGP4","2023-01-02T10:47:30.689664","3.32652714","0.65227450","19.5945","8.0133","214.8056","76.5902","0","U","41587","999","6605","0.00130140000000","0.00019673","0.0000000000000","18955.757","432.884","24941.979","213.265","ROCKET BODY","LARGE","PRC","2016-06-12","XSC","","3729533","222006630","0 CZ-3B R/B","1 41587U 16037B   23002.44966076  .00019673  00000-0  13014-2 0  9998","2 41587  19.5945   8.0133 6522745 214.8056  76.5902  3.32652714 66051"
"2.0","GENERATED VIA SPACE-TRACK.ORG API","2023-01-02T04:16:14","18 SPCS","CZ-3B R/B","2016-037B","EARTH","TEME","UTC","SGP4","2023-01-01T20:23:23.122752","3.32628597","0.65230070","19.5941","8.3901","214.1177","77.9841","0","U","41587","999","6603","0.00124800000000","0.00018914","0.0000000000000","18956.673","432.915","24943.989","213.087","ROCKET BODY","LARGE","PRC","2016-06-12","XSC","","3729050","221995514","0 CZ-3B R/B","1 41587U 16037B   23001.84957318  .00018914  00000-0  12480-2 0  9993","2 41587  19.5941   8.3901 6523007 214.1177  77.9841  3.32628597 66039"
"2.0","GENERATED VIA SPACE-TRACK.ORG API","2023-01-02T17:42:09","18 SPCS","FALCON 9 R/B","2016-038C","EARTH","TEME","UTC","SGP4","2023-01-01T22:57:48.141216","1.18380846","0.81734630","22.5254","244.1633","179.2109","184.5774","0","U","41590","999","2824","0.00137810000000","-0.00000117","0.0000000000000","37746.864","1216.413","62220.989","516.469","ROCKET BODY","LARGE","US","2016-06-15","AFETR","","3729583","222025483","0 FALCON 9 R/B","1 41590U 16038C   23001.95680719 -.00000117  00000-0  13781-2 0  9990","2 41590  22.5254 244.1633 8173463 179.2109 184.5774  1.18380846 28246"
"2.0","GENERATED VIA SPACE-TRACK.ORG API","2023-01-03T02:40:54","18 SPCS","FALCON 9 R/B","2016-038C","EARTH","TEME","UTC","SGP4","2023-01-02T19:09:19.532736","1.18380738","0.81738180","22.5166","244.0208","179.4631","183.1225","0","U","41590","999","2825","0.00127810000000","-0.00000083","0.0000000000000","37746.887","1216.414","62222.371","515.134","ROCKET BODY","LARGE","US","2016-06-15","AFETR","","3729873","222058288","0 FALCON 9 R/B","1 41590U 16038C   23002.79814274 -.00000083  00000-0  12781-2 0  9999","2 41590  22.5166 244.0208 8173818 179.4631 183.1225  1.18380738 28258"
